GLOBALSTAR M057         
1 25943U 99058A   25066.75866741 -.00000059  00000+0  30850-3 0  9990
2 25943  51.9974 276.0589 0002917 150.6890 209.4123 12.24815285154509
GLOBALSTAR M059         
1 25944U 99058B   25067.47893634 -.00000086  00000+0 -15053-5 0  9993
2 25944  52.0003 119.6208 0000898 127.2412 339.9172 11.99974291150706
GLOBALSTAR M056         
1 25945U 99058C   25067.19962067 -.00000058  00000+0  34212-3 0  9994
2 25945  51.9949 124.9270 0000576   1.7067  32.4579 12.04777068150499
GLOBALSTAR M031         
1 25946U 99058D   25066.88816323 -.00000148  00000+0 -58177-3 0  9990
2 25946  51.9992  24.1727 0001385 347.8252  28.0793 12.16031181152229
GLOBALSTAR M039         
1 25961U 99062A   25067.44751719 -.00000070  00000+0  19128-3 0  9998
2 25961  51.9829 215.5486 0003527 121.3364 238.7848 12.62320424167524
GLOBALSTAR M034         
1 25962U 99062B   25066.83342845 -.00000024  00000+0  90617-3 0  9998
2 25962  51.9860 274.8522 0013649 206.1362 167.3190 11.79445397126431
GLOBALSTAR M029         
1 25963U 99062C   25067.32988324 -.00000062  00000+0  30005-3 0  9999
2 25963  51.9839   8.1462 0002207 286.5432 246.1871 11.99892277157067
GLOBALSTAR M061         
1 25964U 99062D   25066.81473273 -.00000070  00000+0  16439-3 0  9999
2 25964  51.9778  97.5859 0006309 134.9283  36.2080 11.76771434109242
